ONEWEB-0228             
1 48780U 21045P   24199.58803395 -.00000103  00000+0 -31014-3 0  9992
2 48780  87.9013  38.3969 0001808  82.5002 277.6334 13.15070635152347
